{"type":"FeatureCollection","features":[{"type":"Feature","geometry":{"type":"Point","coordinates":[2.5,58.1]},"properties":{"id":"field-001","name":"Статфьорд","region":"norway","country":"Норвегия","objectType":"oil_gas","status":"production","startYear":1979,"waterDepth":145,"source":"NOD FactPages","sourceUrl":"https://factpages.npd.no/en/facility"}},{"type":"Feature","geometry":{"type":"Point","coordinates":[1.9,60.1]},"properties":{"id":"field-002","name":"Экофиск","region":"norway","country":"Норвегия","objectType":"oil_gas","status":"production","startYear":1971,"waterDepth":70,"source":"NOD FactPages","sourceUrl":"https://factpages.npd.no/en/facility"}},{"type":"Feature","geometry":{"type":"Point","coordinates":[1.8,56.5]},"properties":{"id":"field-003","name":"Тролль","region":"norway","country":"Норвегия","objectType":"gas","status":"production","startYear":1996,"waterDepth":340,"source":"NOD FactPages","sourceUrl":"https://factpages.npd.no/en/facility"}},{"type":"Feature","geometry":{"type":"Point","coordinates":[2.2,59.9]},"properties":{"id":"field-004","name":"Осеберг","region":"norway","country":"Норвегия","objectType":"oil_gas","status":"production","startYear":1988,"waterDepth":109,"source":"NOD FactPages","sourceUrl":"https://factpages.npd.no/en/facility"}},{"type":"Feature","geometry":{"type":"Point","coordinates":[2,61.2]},"properties":{"id":"field-005","name":"Гулфакс","region":"norway","country":"Норвегия","objectType":"oil_gas","status":"production","startYear":1986,"waterDepth":135,"source":"NOD FactPages","sourceUrl":"https://factpages.npd.no/en/facility"}},{"type":"Feature","geometry":{"type":"Point","coordinates":[-1.8,56]},"properties":{"id":"field-006","name":"Фортис","region":"uk","country":"Великобритания","objectType":"oil","status":"production","startYear":1975,"waterDepth":128,"source":"NSTA PPRS","sourceUrl":"https://data.gov.uk/dataset/nsta-field-production"}},{"type":"Feature","geometry":{"type":"Point","coordinates":[2.3,59.4]},"properties":{"id":"field-007","name":"Снорре","region":"norway","country":"Норвегия","objectType":"oil","status":"production","startYear":1992,"waterDepth":310,"source":"NOD FactPages","sourceUrl":"https://factpages.npd.no/en/facility"}},{"type":"Feature","geometry":{"type":"Point","coordinates":[-2,58.2]},"properties":{"id":"field-008","name":"Брент","region":"uk","country":"Великобритания","objectType":"oil_gas","status":"decommissioned","startYear":1976,"waterDepth":140,"source":"NSTA PPRS","sourceUrl":"https://data.gov.uk/dataset/nsta-field-production"}},{"type":"Feature","geometry":{"type":"Point","coordinates":[2.1,58.8]},"properties":{"id":"field-009","name":"Хейдрун","region":"norway","country":"Норвегия","objectType":"oil_gas","status":"production","startYear":1995,"waterDepth":350,"source":"NOD FactPages","sourceUrl":"https://factpages.npd.no/en/facility"}},{"type":"Feature","geometry":{"type":"Point","coordinates":[-92.2,28.1]},"properties":{"id":"field-011","name":"Марлин","region":"usa","country":"США","objectType":"oil_gas","status":"production","startYear":1996,"waterDepth":910,"source":"EIA, BSEE","sourceUrl":"https://www.eia.gov"}},{"type":"Feature","geometry":{"type":"Point","coordinates":[-89.5,28.2]},"properties":{"id":"field-012","name":"Тандер-Хорс","region":"usa","country":"США","objectType":"oil","status":"production","startYear":1999,"waterDepth":1830,"source":"EIA, BSEE","sourceUrl":"https://www.eia.gov"}},{"type":"Feature","geometry":{"type":"Point","coordinates":[-1.5,55.5]},"properties":{"id":"field-010","name":"Клайд","region":"uk","country":"Великобритания","objectType":"gas","status":"development","startYear":null,"waterDepth":110,"source":"NSTA PPRS","sourceUrl":"https://data.gov.uk/dataset/nsta-field-production"}},{"type":"Feature","geometry":{"type":"Point","coordinates":[57.34,69.25]},"properties":{"id":"field-ru-01","name":"Приразломное","region":"russia","country":"Россия","objectType":"oil","status":"production","startYear":2013,"waterDepth":20,"source":"Роснедра, Wikipedia","sourceUrl":"https://rfgf.ru/gosudarstvennyj-doklad"}},{"type":"Feature","geometry":{"type":"Point","coordinates":[143.2,54.2]},"properties":{"id":"field-ru-02","name":"Чайво (Сахалин-1)","region":"russia","country":"Россия","objectType":"oil_gas","status":"production","startYear":2005,"waterDepth":45,"source":"Wikipedia, Exxon Neftegas","sourceUrl":"https://en.wikipedia.org/wiki/Sakhalin-I"}},{"type":"Feature","geometry":{"type":"Point","coordinates":[143,54.5]},"properties":{"id":"field-ru-03","name":"Одопту (Сахалин-1)","region":"russia","country":"Россия","objectType":"oil_gas","status":"production","startYear":2010,"waterDepth":35,"source":"Wikipedia, Exxon Neftegas","sourceUrl":"https://en.wikipedia.org/wiki/Sakhalin-I"}},{"type":"Feature","geometry":{"type":"Point","coordinates":[142.8,53.7]},"properties":{"id":"field-ru-04","name":"Аркутун-Даги (Сахалин-1)","region":"russia","country":"Россия","objectType":"oil_gas","status":"production","startYear":2015,"waterDepth":55,"source":"Wikipedia, Exxon Neftegas","sourceUrl":"https://en.wikipedia.org/wiki/Sakhalin-I"}},{"type":"Feature","geometry":{"type":"Point","coordinates":[49.2,46.7]},"properties":{"id":"field-ru-05","name":"им. Филановского","region":"russia","country":"Россия","objectType":"oil_gas","status":"production","startYear":2016,"waterDepth":10,"source":"Лукойл, Wikipedia","sourceUrl":"https://ru.wikipedia.org/wiki/Месторождение_имени_Филановского"}},{"type":"Feature","geometry":{"type":"Point","coordinates":[48.8,46.5]},"properties":{"id":"field-ru-06","name":"им. Корчагина","region":"russia","country":"Россия","objectType":"oil_gas","status":"production","startYear":2010,"waterDepth":12,"source":"Лукойл, Wikipedia","sourceUrl":"https://ru.wikipedia.org/wiki/Месторождение_имени_Корчагина"}}]}